{
 "generated_at": "2026-06-24T08:22:35Z",
 "sources": [
  {
   "name": "CelesTrak",
   "url": "https://celestrak.org/NORAD/elements/",
   "license": "frei verfügbar; Attribution. Ursprünglich USSPACECOM/Space-Track."
  },
  {
   "name": "GCAT (J. McDowell, planet4589.org)",
   "url": "https://planet4589.org/space/gcat/",
   "license": "CC-BY 4.0"
  }
 ],
 "satellites": [
  {
   "norad": 59447,
   "name": "QPS-SAR-7 (TSUKUYOMI-II)",
   "intl": "2024-066F",
   "group": "sar",
   "gcat": {
    "class": "B",
    "category": "IMG-R",
    "owner": "QPS",
    "state": "J"
   },
   "omm": {
    "OBJECT_NAME": "QPS-SAR-7 (TSUKUYOMI-II)",
    "OBJECT_ID": "2024-066F",
    "EPOCH": "2026-06-23T22:06:22.278816",
    "MEAN_MOTION": 15.08994737,
    "ECCENTRICITY": 0.00023386,
    "INCLINATION": 45.6028,
    "RA_OF_ASC_NODE": 209.9946,
    "ARG_OF_PERICENTER": 327.5365,
    "MEAN_ANOMALY": 32.5376,
    "EPHEMERIS_TYPE": 0,
    "CLASSIFICATION_TYPE": "U",
    "NORAD_CAT_ID": 59447,
    "ELEMENT_SET_NO": 999,
    "REV_AT_EPOCH": 12124,
    "BSTAR": 0.00028527823,
    "MEAN_MOTION_DOT": 0.0000433,
    "MEAN_MOTION_DDOT": 0
   }
  },
  {
   "norad": 60542,
   "name": "QPS-SAR-8 (AMATERU-IV)",
   "intl": "2024-149CC",
   "group": "sar",
   "gcat": {
    "class": "B",
    "category": "IMG-R",
    "owner": "QPS",
    "state": "J"
   },
   "omm": {
    "OBJECT_NAME": "QPS-SAR-8 (AMATERU-IV)",
    "OBJECT_ID": "2024-149CC",
    "EPOCH": "2026-06-23T18:42:33.558912",
    "MEAN_MOTION": 15.04180628,
    "ECCENTRICITY": 0.0004269,
    "INCLINATION": 97.665,
    "RA_OF_ASC_NODE": 253.8736,
    "ARG_OF_PERICENTER": 94.546,
    "MEAN_ANOMALY": 265.6254,
    "EPHEMERIS_TYPE": 0,
    "CLASSIFICATION_TYPE": "U",
    "NORAD_CAT_ID": 60542,
    "ELEMENT_SET_NO": 999,
    "REV_AT_EPOCH": 10126,
    "BSTAR": 0.00031997741,
    "MEAN_MOTION_DOT": 0.00004382,
    "MEAN_MOTION_DDOT": 0
   }
  },
  {
   "norad": 63205,
   "name": "QPS-SAR-9 (SUSANOO-I)",
   "intl": "2025-050A",
   "group": "sar",
   "gcat": {
    "class": "B",
    "category": "IMG-R",
    "owner": "QPS",
    "state": "J"
   },
   "omm": {
    "OBJECT_NAME": "QPS-SAR-9 (SUSANOO-I)",
    "OBJECT_ID": "2025-050A",
    "EPOCH": "2026-06-23T23:05:55.831200",
    "MEAN_MOTION": 15.03195865,
    "ECCENTRICITY": 0.00048622,
    "INCLINATION": 42.0199,
    "RA_OF_ASC_NODE": 64.7971,
    "ARG_OF_PERICENTER": 213.8193,
    "MEAN_ANOMALY": 146.2324,
    "EPHEMERIS_TYPE": 0,
    "CLASSIFICATION_TYPE": "U",
    "NORAD_CAT_ID": 63205,
    "ELEMENT_SET_NO": 999,
    "REV_AT_EPOCH": 6998,
    "BSTAR": 0.00032338688,
    "MEAN_MOTION_DOT": 0.00004262,
    "MEAN_MOTION_DDOT": 0
   }
  },
  {
   "norad": 32382,
   "name": "RADARSAT-2",
   "intl": "2007-061A",
   "group": "resource",
   "gcat": {
    "class": "C",
    "category": "IMG-R",
    "owner": "CSA",
    "state": "CA"
   },
   "omm": {
    "OBJECT_NAME": "RADARSAT-2",
    "OBJECT_ID": "2007-061A",
    "EPOCH": "2026-06-23T23:09:29.841408",
    "MEAN_MOTION": 14.2998313,
    "ECCENTRICITY": 0.00012981,
    "INCLINATION": 98.5783,
    "RA_OF_ASC_NODE": 181.8005,
    "ARG_OF_PERICENTER": 86.0983,
    "MEAN_ANOMALY": 274.0348,
    "EPHEMERIS_TYPE": 0,
    "CLASSIFICATION_TYPE": "U",
    "NORAD_CAT_ID": 32382,
    "ELEMENT_SET_NO": 999,
    "REV_AT_EPOCH": 96692,
    "BSTAR": 0.000041912059,
    "MEAN_MOTION_DOT": 6.4e-7,
    "MEAN_MOTION_DDOT": 0
   }
  },
  {
   "norad": 37791,
   "name": "RASAT",
   "intl": "2011-044D",
   "group": "resource",
   "gcat": {
    "class": null,
    "category": null,
    "owner": null,
    "state": null
   },
   "omm": {
    "OBJECT_NAME": "RASAT",
    "OBJECT_ID": "2011-044D",
    "EPOCH": "2026-06-23T22:29:28.083840",
    "MEAN_MOTION": 14.68171794,
    "ECCENTRICITY": 0.00207046,
    "INCLINATION": 98.0571,
    "RA_OF_ASC_NODE": 266.2312,
    "ARG_OF_PERICENTER": 167.3258,
    "MEAN_ANOMALY": 320.3687,
    "EPHEMERIS_TYPE": 0,
    "CLASSIFICATION_TYPE": "U",
    "NORAD_CAT_ID": 37791,
    "ELEMENT_SET_NO": 999,
    "REV_AT_EPOCH": 79417,
    "BSTAR": 0.000086906782,
    "MEAN_MOTION_DOT": 0.00000452,
    "MEAN_MOTION_DDOT": 0
   }
  },
  {
   "norad": 44322,
   "name": "RCM-1",
   "intl": "2019-033A",
   "group": "sar",
   "gcat": {
    "class": "C",
    "category": "IMG-R",
    "owner": "CSA",
    "state": "CA"
   },
   "omm": {
    "OBJECT_NAME": "RCM-1",
    "OBJECT_ID": "2019-033A",
    "EPOCH": "2026-06-22T23:12:28.825920",
    "MEAN_MOTION": 14.92590102,
    "ECCENTRICITY": 0.00014361,
    "INCLINATION": 97.7611,
    "RA_OF_ASC_NODE": 181.3305,
    "ARG_OF_PERICENTER": 89.8738,
    "MEAN_ANOMALY": 270.2646,
    "EPHEMERIS_TYPE": 0,
    "CLASSIFICATION_TYPE": "U",
    "NORAD_CAT_ID": 44322,
    "ELEMENT_SET_NO": 999,
    "REV_AT_EPOCH": 38294,
    "BSTAR": -0.000001879407,
    "MEAN_MOTION_DOT": -7.5e-7,
    "MEAN_MOTION_DDOT": 0
   }
  },
  {
   "norad": 44324,
   "name": "RCM-2",
   "intl": "2019-033C",
   "group": "sar",
   "gcat": {
    "class": "C",
    "category": "IMG-R",
    "owner": "CSA",
    "state": "CA"
   },
   "omm": {
    "OBJECT_NAME": "RCM-2",
    "OBJECT_ID": "2019-033C",
    "EPOCH": "2026-06-23T22:48:31.618080",
    "MEAN_MOTION": 14.92589949,
    "ECCENTRICITY": 0.00015171,
    "INCLINATION": 97.76,
    "RA_OF_ASC_NODE": 182.345,
    "ARG_OF_PERICENTER": 90.4161,
    "MEAN_ANOMALY": 269.7232,
    "EPHEMERIS_TYPE": 0,
    "CLASSIFICATION_TYPE": "U",
    "NORAD_CAT_ID": 44324,
    "ELEMENT_SET_NO": 999,
    "REV_AT_EPOCH": 38309,
    "BSTAR": 0.000057271357,
    "MEAN_MOTION_DOT": 0.00000533,
    "MEAN_MOTION_DDOT": 0
   }
  },
  {
   "norad": 44323,
   "name": "RCM-3",
   "intl": "2019-033B",
   "group": "sar",
   "gcat": {
    "class": "C",
    "category": "IMG-R",
    "owner": "CSA",
    "state": "CA"
   },
   "omm": {
    "OBJECT_NAME": "RCM-3",
    "OBJECT_ID": "2019-033B",
    "EPOCH": "2026-06-23T22:16:32.695680",
    "MEAN_MOTION": 14.92588678,
    "ECCENTRICITY": 0.00015238,
    "INCLINATION": 97.76,
    "RA_OF_ASC_NODE": 182.3727,
    "ARG_OF_PERICENTER": 89.3493,
    "MEAN_ANOMALY": 270.7901,
    "EPHEMERIS_TYPE": 0,
    "CLASSIFICATION_TYPE": "U",
    "NORAD_CAT_ID": 44323,
    "ELEMENT_SET_NO": 999,
    "REV_AT_EPOCH": 38310,
    "BSTAR": -0.000017271786,
    "MEAN_MOTION_DOT": -0.00000233,
    "MEAN_MOTION_DDOT": 0
   }
  },
  {
   "norad": 37387,
   "name": "RESOURCESAT-2",
   "intl": "2011-015A",
   "group": "resource",
   "gcat": {
    "class": null,
    "category": "IMG",
    "owner": "ISRO",
    "state": "IN"
   },
   "omm": {
    "OBJECT_NAME": "RESOURCESAT-2",
    "OBJECT_ID": "2011-015A",
    "EPOCH": "2026-06-23T21:59:15.093888",
    "MEAN_MOTION": 14.21601185,
    "ECCENTRICITY": 0.00104043,
    "INCLINATION": 98.7641,
    "RA_OF_ASC_NODE": 242.3115,
    "ARG_OF_PERICENTER": 234.1046,
    "MEAN_ANOMALY": 125.9166,
    "EPHEMERIS_TYPE": 0,
    "CLASSIFICATION_TYPE": "U",
    "NORAD_CAT_ID": 37387,
    "ELEMENT_SET_NO": 999,
    "REV_AT_EPOCH": 78713,
    "BSTAR": 0.000050862046,
    "MEAN_MOTION_DOT": 6.7e-7,
    "MEAN_MOTION_DDOT": 0
   }
  },
  {
   "norad": 41877,
   "name": "RESOURCESAT-2A",
   "intl": "2016-074A",
   "group": "resource",
   "gcat": {
    "class": "C",
    "category": "IMG",
    "owner": "ISRO",
    "state": "IN"
   },
   "omm": {
    "OBJECT_NAME": "RESOURCESAT-2A",
    "OBJECT_ID": "2016-074A",
    "EPOCH": "2026-06-23T21:32:54.964032",
    "MEAN_MOTION": 14.21618444,
    "ECCENTRICITY": 0.00032342,
    "INCLINATION": 98.7523,
    "RA_OF_ASC_NODE": 248.3477,
    "ARG_OF_PERICENTER": 71.7924,
    "MEAN_ANOMALY": 288.3605,
    "EPHEMERIS_TYPE": 0,
    "CLASSIFICATION_TYPE": "U",
    "NORAD_CAT_ID": 41877,
    "ELEMENT_SET_NO": 999,
    "REV_AT_EPOCH": 49525,
    "BSTAR": 0.000099735114,
    "MEAN_MOTION_DOT": 0.00000175,
    "MEAN_MOTION_DDOT": 0
   }
  }
 ]
}
