RADARSAT-2              
1 32382U 07061A   26174.96492872  .00000064  00000+0  41912-4 0  9999
2 32382  98.5783 181.8005 0001298  86.0983 274.0348 14.29983130966927
RESOURCESAT-2           
1 37387U 11015A   26174.91614692  .00000067  00000+0  50862-4 0  9991
2 37387  98.7641 242.3115 0010404 234.1046 125.9166 14.21601185787137
RASAT                   
1 37791U 11044D   26174.93713060  .00000452  00000+0  86907-4 0  9990
2 37791  98.0571 266.2312 0020704 167.3258 320.3687 14.68171794794171
RESOURCESAT-2A          
1 41877U 16074A   26174.89785838  .00000175  00000+0  99735-4 0  9990
2 41877  98.7523 248.3477 0003234  71.7924 288.3605 14.21618444495252
RCM-1                   
1 44322U 19033A   26173.96700030 -.00000075  00000+0 -18794-5 0  9992
2 44322  97.7611 181.3305 0001436  89.8738 270.2646 14.92590102382942
RCM-3                   
1 44323U 19033B   26174.92815620 -.00000233  00000+0 -17272-4 0  9997
2 44323  97.7600 182.3727 0001523  89.3493 270.7901 14.92588678383103
RCM-2                   
1 44324U 19033C   26174.95036595  .00000533  00000+0  57271-4 0  9991
2 44324  97.7600 182.3450 0001517  90.4161 269.7232 14.92589949383090
QPS-SAR-7 (TSUKUYOMI-II)
1 59447U 24066F   26174.92109119  .00004330  00000+0  28528-3 0  9996
2 59447  45.6028 209.9946 0002338 327.5365  32.5376 15.08994737121241
QPS-SAR-8 (AMATERU-IV)  
1 60542U 24149CC  26174.77955508  .00004382  00000+0  31998-3 0  9992
2 60542  97.6650 253.8736 0004269  94.5460 265.6254 15.04180628101260
QPS-SAR-9 (SUSANOO-I)   
1 63205U 25050A   26174.96245175  .00004262  00000+0  32339-3 0  9993
2 63205  42.0199  64.7971 0004862 213.8193 146.2324 15.03195865 69981
